[{"OBJECT_NAME":"ONEWEB-0248","OBJECT_ID":"2021-045AH","EPOCH":"2026-03-09T15:06:26.476704","MEAN_MOTION":13.15550285,"ECCENTRICITY":0.0002034,"INCLINATION":87.8946,"RA_OF_ASC_NODE":279.0622,"ARG_OF_PERICENTER":99.2247,"MEAN_ANOMALY":260.9114,"EPHEMERIS_TYPE":0,"CLASSIFICATION_TYPE":"U","NORAD_CAT_ID":48798,"ELEMENT_SET_NO":999,"REV_AT_EPOCH":23132,"BSTAR":4.9805e-5,"MEAN_MOTION_DOT":3.2e-7,"MEAN_MOTION_DDOT":0},{"OBJECT_NAME":"DELTA 1 DEB","OBJECT_ID":"1975-052CQ","EPOCH":"2026-03-09T22:30:29.890080","MEAN_MOTION":13.28179028,"ECCENTRICITY":0.00803318,"INCLINATION":99.9046,"RA_OF_ASC_NODE":193.8236,"ARG_OF_PERICENTER":71.2084,"MEAN_ANOMALY":49.3629,"EPHEMERIS_TYPE":0,"CLASSIFICATION_TYPE":"U","NORAD_CAT_ID":21370,"ELEMENT_SET_NO":999,"REV_AT_EPOCH":68654,"BSTAR":0.00014678314,"MEAN_MOTION_DOT":2.6e-7,"MEAN_MOTION_DDOT":0}]
